NORAD_CAT_ID,OBJECT_NAME,OBJECT_TYPE,EPOCH,MEAN_MOTION,ECCENTRICITY,INCLINATION,RA_OF_ASC_NODE,ARG_OF_PERICENTER,MEAN_ANOMALY,BSTAR,MEAN_MOTION_DOT,MEAN_MOTION_DDOT,TLE_LINE0,TLE_LINE1,TLE_LINE2,SEMIMAJOR_AXIS,PERIOD,APOGEE,PERIGEE,DECAYED
50157.0,STARLINK-3313,PAYLOAD,2022-05-17 14:00:01,15.0883193,0.0002149,53.215,28.5436,41.812,185.3924,0.0023911,0.00037964,0.0,0 STARLINK-3313,1 50157U 21125B   22137.58335648  .00037964  00000-0  23911-2 0  9993,2 50157  53.2150  28.5436 0002149  41.8120 185.3924 15.08831930  1300,6917.905,95.438,541.257,538.283,0.0
50157.0,STARLINK-3313,PAYLOAD,2022-05-17 22:00:01,15.08850735,0.0002249,53.2151,27.0487,39.1551,199.6583,-0.00085757,-0.00013915,0.0,0 STARLINK-3313,1 50157U 21125B   22137.91668981 -.00013915  00000-0 -85757-3 0  9998,2 50157  53.2151  27.0487 0002249  39.1551 199.6583 15.08850735  1303,6917.848000000001,95.437,541.268,538.1569999999998,0.0
50157.0,STARLINK-3313,PAYLOAD,2022-05-18 06:00:00,15.08876741,0.0002244,53.2146,25.5523,35.8762,214.4784,-0.0023724,-0.00037886,0.0,0 STARLINK-3313,1 50157U 21125B   22138.25001157 -.00037886  00000-0 -23724-2 0  9990,2 50157  53.2146  25.5523 0002244  35.8762 214.4784 15.08876741 23301,6917.768,95.435,541.185,538.081,0.0
50157.0,STARLINK-3313,PAYLOAD,2022-05-18 14:00:01,15.08837194,0.0002089,53.2146,24.0541,40.1262,221.8526,0.0011077,0.00017384,0.0,0 STARLINK-3313,1 50157U 21125B   22138.58334491  .00017384  00000-0  11077-2 0  9993,2 50157  53.2146  24.0541 0002089  40.1262 221.8526 15.08837194  1307,6917.889,95.438,541.1990000000002,538.309,0.0
50157.0,STARLINK-3313,PAYLOAD,2022-05-18 22:00:00,15.08850553,0.0002265,53.2147,22.5592,38.6356,234.9404,-0.0031586,-0.00050224,0.0,0 STARLINK-3313,1 50157U 21125B   22138.91667824 -.00050224  00000-0 -31586-2 0  9998,2 50157  53.2147  22.5592 0002265  38.6356 234.9404 15.08850553  1303,6917.848000000001,95.437,541.28,538.146,0.0
50157.0,STARLINK-3313,PAYLOAD,2022-05-19 06:00:00,15.08841683,0.0002237,53.2145,21.0626,34.6138,250.5413,-0.0023613,-0.00037675,0.0,0 STARLINK-3313,1 50157U 21125B   22139.25001157 -.00037675  00000-0 -23613-2 0  9994,2 50157  53.2145  21.0626 0002237  34.6138 250.5413 15.08841683 23454,6917.875,95.437,541.288,538.193,0.0
50157.0,STARLINK-3313,PAYLOAD,2022-05-19 14:00:01,15.08793051,0.0002062,53.2146,19.5644,38.1691,258.6368,0.0035986999999999,0.00057379,0.0,0 STARLINK-3313,1 50157U 21125B   22139.58335648  .00057379  00000-0  35987-2 0  9993,2 50157  53.2146  19.5644 0002062  38.1691 258.6368 15.08793051  1309,6918.024,95.441,541.315,538.462,0.0
50157.0,STARLINK-3313,PAYLOAD,2022-05-19 22:00:00,15.08833308,0.0002259,53.2148,18.0696,36.1748,272.1332,0.00045489,6.958e-05,0.0,0 STARLINK-3313,1 50157U 21125B   22139.91667824  .00006958  00000-0  45489-3 0  9990,2 50157  53.2148  18.0696 0002259  36.1748 272.1332 15.08833308 23554,6917.901,95.438,541.3290000000002,538.203,0.0
50157.0,STARLINK-3313,PAYLOAD,2022-05-20 14:00:01,15.08856304,0.0002126,53.2159,15.0641,38.3555,293.1361,-0.0058202,-0.00091783,0.0,0 STARLINK-3313,1 50157U 21125B   22140.58334491 -.00091783  00000-0 -58202-2 0  9994,2 50157  53.2159  15.0641 0002126  38.3555 293.1361 15.08856304  1301,6917.831,95.437,541.1659999999998,538.225,0.0
50157.0,STARLINK-3313,PAYLOAD,2022-05-20 22:00:00,15.08830412,0.0002347,53.2153,13.5801,36.9843,306.0924,0.00036787,5.570000000000001e-05,0.0,0 STARLINK-3313,1 50157U 21125B   22140.91667824  .00005570  00000-0  36787-3 0  9992,2 50157  53.2153  13.5801 0002347  36.9843 306.0924 15.08830412 23704,6917.91,95.438,541.398,538.151,0.0
50157.0,STARLINK-3313,PAYLOAD,2022-05-21 06:00:00,15.08874161,0.0002302,53.2153,12.0833,34.5147,320.147,-0.0036016,-0.00057209,0.0,0 STARLINK-3313,1 50157U 21125B   22141.25001157 -.00057209  00000-0 -36016-2 0  9993,2 50157  53.2153  12.0833 0002302  34.5147 320.1470 15.08874161  1309,6917.776,95.435,541.2330000000002,538.049,0.0
50157.0,STARLINK-3313,PAYLOAD,2022-05-21 14:00:01,15.08833173,0.0002151,53.2157,10.5854,39.0404,327.2979,0.0010313,0.0001616,0.0,0 STARLINK-3313,1 50157U 21125B   22141.58335648  .00016160  00000-0  10313-2 0  9995,2 50157  53.2157  10.5854 0002151  39.0404 327.2979 15.08833173  1307,6917.901,95.438,541.254,538.278,0.0
50157.0,STARLINK-3313,PAYLOAD,2022-05-21 22:00:00,15.08832463,0.0002391,53.2158,9.0907,37.7082,340.1667,0.00072723,0.00011302,0.0,0 STARLINK-3313,1 50157U 21125B   22141.91667824  .00011302  00000-0  72723-3 0  9993,2 50157  53.2158   9.0907 0002391  37.7082 340.1667 15.08832463  1302,6917.903,95.438,541.422,538.114,0.0
50157.0,STARLINK-3313,PAYLOAD,2022-05-22 06:00:00,15.0887427,0.0002309,53.2157,7.5937,35.5638,353.8933,-0.0038729,-0.0006146,0.0,0 STARLINK-3313,1 50157U 21125B   22142.25001157 -.00061460  00000-0 -38729-2 0  9991,2 50157  53.2157   7.5937 0002309  35.5638 353.8933 15.08874270 23919,6917.776,95.435,541.238,538.043,0.0
50157.0,STARLINK-3313,PAYLOAD,2022-05-22 14:00:01,15.08821464,0.0002084,53.2161,6.0961,38.0511,3.0157,0.00099303,0.00015543,0.0,0 STARLINK-3313,1 50157U 21125B   22142.58334491  .00015543  00000-0  99303-3 0  9992,2 50157  53.2161   6.0961 0002084  38.0511   3.0157 15.08821464  1301,6917.937,95.439,541.244,538.36,0.0
50157.0,STARLINK-3313,PAYLOAD,2022-05-22 22:00:01,15.08831705,0.0002258,53.216,4.6015,33.8776,18.838,0.00057965,8.947e-05,0.0,0 STARLINK-3313,1 50157U 21125B   22142.91668981  .00008947  00000-0  57965-3 0  9991,2 50157  53.2160   4.6015 0002258  33.8776  18.8380 15.08831705 24017,6917.906,95.438,541.3330000000002,538.2090000000002,0.0
50157.0,STARLINK-3313,PAYLOAD,2022-05-23 14:00:01,15.08839109,0.0002305,53.2175,1.5869,34.6554,41.1268,-0.00016806,-2.962e-05,0.0,0 STARLINK-3313,1 50157U 21125B   22143.58334491 -.00002962  00000-0 -16806-3 0  9993,2 50157  53.2175   1.5869 0002305  34.6554  41.1268 15.08839109 24113,6917.8830000000025,95.438,541.3430000000002,538.154,0.0
50157.0,STARLINK-3313,PAYLOAD,2022-05-23 22:00:01,15.08854204,0.0002178,53.2158,0.1125,31.82800000000001,55.6612,-0.0013196,-0.00021237,0.0,0 STARLINK-3313,1 50157U 21125B   22143.91668981 -.00021237  00000-0 -13196-2 0  9998,2 50157  53.2158   0.1125 0002178  31.8280  55.6612 15.08854204 24168,6917.837,95.437,541.2090000000002,538.195,0.0
50157.0,STARLINK-3313,PAYLOAD,2022-05-24 14:00:01,15.08844231,0.0001968,53.2156,357.11800000000005,35.7741,74.8387,-0.00072798,-0.00011857,0.0,0 STARLINK-3313,1 50157U 21125B   22144.58334491 -.00011857  00000-0 -72798-3 0  9999,2 50157  53.2156 357.1180 0001968  35.7741  74.8387 15.08844231  1305,6917.8669999999975,95.437,541.094,538.371,0.0
50157.0,STARLINK-3313,PAYLOAD,2022-05-24 22:00:00,15.08815759,0.0002215,53.2154,355.6236,33.9865,88.2205,0.0010584,0.00016586,0.0,0 STARLINK-3313,1 50157U 21125B   22144.91667824  .00016586  00000-0  10584-2 0  9991,2 50157  53.2154 355.6236 0002215  33.9865  88.2205 15.08815759  1302,6917.954000000002,95.439,541.352,538.2869999999998,0.0
50157.0,STARLINK-3313,PAYLOAD,2022-05-25 06:00:00,15.08848259,0.000215,53.2149,354.1262,34.5454,99.2329,-0.0011298,-0.00018229,0.0,0 STARLINK-3313,1 50157U 21125B   22145.25001157 -.00018229  00000-0 -11298-2 0  9991,2 50157  53.2149 354.1262 0002150  34.5454  99.2329 15.08848259 24369,6917.855,95.437,541.207,538.2330000000002,0.0
50157.0,STARLINK-3313,PAYLOAD,2022-05-25 14:00:01,15.08846513,0.0002107,53.2151,352.629,40.3002,105.0698,-0.0010388,-0.00016786,0.0,0 STARLINK-3313,1 50157U 21125B   22145.58334491 -.00016786  00000-0 -10388-2 0  9992,2 50157  53.2151 352.6290 0002107  40.3002 105.0698 15.08846513  1307,6917.86,95.437,541.183,538.268,0.0
50157.0,STARLINK-3313,PAYLOAD,2022-05-25 21:18:27,15.08834075,0.0002033,53.2162,351.2623,40.952,319.1625,1.2813e-05,-8.4e-07,0.0,0 STARLINK-3313,1 50157U 21125B   22145.88781987 -.00000084  00000-0  12813-4 0  9991,2 50157  53.2162 351.2623 0002033  40.9520 319.1625 15.08834075 27590,6917.898,95.438,541.17,538.357,0.0
50157.0,STARLINK-3313,PAYLOAD,2022-05-26 06:00:00,15.08858966,0.0002244,53.2145,349.6369,37.343,131.2035,-0.0021719,-0.00034707,0.0,0 STARLINK-3313,1 50157U 21125B   22146.25001157 -.00034707  00000-0 -21719-2 0  9990,2 50157  53.2145 349.6369 0002244  37.3430 131.2035 15.08858966 24515,6917.821999999999,95.436,541.24,538.135,0.0
50157.0,STARLINK-3313,PAYLOAD,2022-05-26 06:50:46,15.08836764,0.0002233,53.2166,349.478,36.6275,323.4869,1.4408e-06,-2.65e-06,0.0,0 STARLINK-3313,1 50157U 21125B   22146.28525987 -.00000265  00000-0  14408-5 0  9996,2 50157  53.2166 349.4780 0002233  36.6275 323.4869 15.08836764 27650,6917.89,95.438,541.3,538.211,0.0
50157.0,STARLINK-3313,PAYLOAD,2022-05-26 22:00:00,15.08830843,0.0002346,53.2146,346.6451,35.202,156.5396,-0.00047321,-7.809999999999999e-05,0.0,0 STARLINK-3313,1 50157U 21125B   22146.91667824 -.00007810  00000-0 -47321-3 0  9995,2 50157  53.2146 346.6451 0002346  35.2020 156.5396 15.08830843  1306,6917.908,95.438,541.396,538.15,0.0
50157.0,STARLINK-3313,PAYLOAD,2022-05-27 02:00:01,15.08835103,0.0002313,53.2143,345.8966,32.5125,345.0191,-0.0015228,-0.0002444,0.0,0 STARLINK-3313,1 50157U 21125B   22147.08334491 -.00024440  00000-0 -15228-2 0  9993,2 50157  53.2143 345.8966 0002313  32.5125 345.0191 15.08835103 24649,6917.895,95.438,541.36,538.16,0.0
50157.0,STARLINK-3313,PAYLOAD,2022-05-27 13:03:05,15.08842043,0.0002108,53.2171,343.8279,32.922,327.1903,3.5041e-05,2.7000000000000004e-06,0.0,0 STARLINK-3313,1 50157U 21125B   22147.54381620  .00000270  00000-0  35041-4 0  9990,2 50157  53.2171 343.8279 0002108  32.9220 327.1903 15.08842043 24718,6917.874,95.437,541.197,538.281,0.0
50157.0,STARLINK-3313,PAYLOAD,2022-05-27 21:00:01,15.0884121,0.0002166,53.2169,342.3413,33.9367,326.1764,7.010399999999999e-05,8.28e-06,0.0,0 STARLINK-3313,1 50157U 21125B   22147.87501472  .00000828  00000-0  70104-4 0  9993,2 50157  53.2169 342.3413 0002166  33.9367 326.1764 15.08841210 27897,6917.877,95.437,541.24,538.243,0.0
